STARLINK-31380          
1 58979U 24031Q   24333.61887003  .00004503  00000+0  16404-3 0  9995
2 58979  53.1618 301.6873 0000748  73.9696 286.1387 15.30206518 45152
STARLINK-31353          
1 58980U 24031R   24334.20463114 -.00002818  00000+0 -83120-4 0  9995
2 58980  53.1613 298.9500 0000789  83.2393 276.8697 15.30180146 45212
STARLINK-31339          
1 58981U 24031S   24334.01396465 -.00002044  00000+0 -56931-4 0  9990
2 58981  53.1598 299.8890 0001373  25.7999 334.3070 15.30176509 45235
STARLINK-31360          
1 58982U 24031T   24334.17322546  .00064946  00000+0  12536-2 0  9995
2 58982  53.1582 292.3794 0008338  86.9548 273.2414 15.47199108 45351
STARLINK-31384          
1 58983U 24031U   24333.62839232  .00004004  00000+0  14730-3 0  9998
2 58983  53.1619 301.7482 0000350 213.9860 146.1119 15.30183749 45151
STARLINK-31379          
1 58984U 24031V   24333.89386960 -.00001198  00000+0 -28310-4 0  9996
2 58984  53.1621 300.5607 0001507 113.3499 246.7661 15.30206220 45213
STARLINK-31385          
1 58985U 24031W   24334.19565142 -.00000344  00000+0  50669-6 0  9997
2 58985  53.1621 296.7212 0001229  92.8437 267.2704 15.30175130 45295
STARLINK-31229          
1 58986U 24031X   24333.31236703  .00002814  00000+0  10712-3 0  9994
2 58986  53.1606 303.3359 0000452  93.4710 266.6343 15.30185721 45103
CE-SAT-IE               
1 58987U 24032A   24333.59822233  .00001943  00000+0  35267-3 0  9999
2 58987  98.0802  27.5188 0004027  80.2828 279.8831 14.67337376 41862
TIRSAT                  
1 58989U 24032C   24334.06826892  .00004747  00000+0  80103-3 0  9993
2 58989  98.0774  28.6586 0006030 140.5064 219.6582 14.69907807 41986
INSAT-3DS               
1 58990U 24033A   24333.88313250 -.00000129  00000+0  00000+0 0  9999
2 58990   0.0417 269.5985 0001433 343.3159 215.4081  1.00271867 41400
ADRAS-J                 
1 58992U 24034A   24334.13186344  .00007389  00000+0  63865-3 0  9999
2 58992  98.2303 315.1338 0040254 224.0627 135.7383 14.96903986 42519
MERAH PUTIH 2           
1 58995U 24035A   24333.88868826 -.00000330  00000+0  00000+0 0  9994
2 58995   0.0141 298.9993 0001222 298.3263 263.8414  1.00273623  2928
AAC-AIS-SAT3            
1 58997U 23174DJ  24334.11921301  .00012144  00000+0  16856-2 0  9998
2 58997  97.7024  35.9179 0007245  21.6684 338.4833 14.78030839 57498
STARLINK-31468          
1 58998U 24036A   24333.71036442  .00000934  00000+0  43673-4 0  9998
2 58998  53.1596  82.2851 0001422 107.9423 252.1732 15.30194699 43995
STARLINK-31440          
1 58999U 24036B   24333.71247823  .00002528  00000+0  97505-4 0  9990
2 58999  53.1605  82.2915 0001269  81.8447 278.2698 15.30185770 43173
STARLINK-31529          
1 59000U 24036C   24333.73928238 -.00000063  00000+0  96842-5 0  9999
2 59000  53.1602  80.3391 0001278  86.5884 273.5264 15.32037439 43939
STARLINK-31431          
1 59002U 24036E   24333.69148942 -.00000982  00000+0 -21047-4 0  9997
2 59002  53.1611  82.8685 0001320 126.9493 233.1629 15.30185848 43974
STARLINK-31435          
1 59004U 24036G   24333.64821442  .00001428  00000+0  60337-4 0  9996
2 59004  53.1599  82.5999 0001389  88.2779 271.8381 15.30195387 43982
STARLINK-31484          
1 59005U 24036H   24333.65137977  .00001825  00000+0  73731-4 0  9994
2 59005  53.1593  82.6195 0001202  87.5631 272.5507 15.30192094 43978
STARLINK-31450          
1 59006U 24036J   24333.72406869 -.00007442  00000+0 -23914-3 0  9992
2 59006  53.1601  82.3604 0000612  80.3539 279.7531 15.30235707 43989
STARLINK-31456          
1 59007U 24036K   24333.65454137  .00002995  00000+0  11319-3 0  9998
2 59007  53.1620  82.6362 0001326  95.7533 264.3619 15.30202901 43989
STARLINK-31460          
1 59008U 24036L   24333.74941042  .00003110  00000+0  11710-3 0  9990
2 59008  53.1589  82.5230 0001053  96.3507 263.7613 15.30196870 43986
STARLINK-31488          
1 59009U 24036M   24333.65035780  .00002711  00000+0  10373-3 0  9994
2 59009  53.1593  82.6139 0001145  95.2365 264.8767 15.30161204 43977
STARLINK-31528          
1 59010U 24036N   24333.63989531  .00000102  00000+0  15584-4 0  9998
2 59010  53.1620  83.2544 0001262 106.3694 253.7446 15.30181776 43962
STARLINK-31491          
1 59011U 24036P   24333.70620729  .00009104  00000+0  31871-3 0  9995
2 59011  53.1611  82.9575 0001368  97.0064 263.1092 15.30243802 43979
STARLINK-31465          
1 59012U 24036Q   24333.63566318 -.00001559  00000+0 -40516-4 0  9996
2 59012  53.1585  83.2301 0001611  86.8033 273.3152 15.30187853 43966
STARLINK-31389          
1 59013U 24036R   24333.70410583  .00020605  00000+0  70457-3 0  9994
2 59013  53.1592  82.9447 0000114 215.8407 144.2586 15.30259756 43989
STARLINK-31454          
1 59014U 24036S   24333.69779082  .00003615  00000+0  13400-3 0  9992
2 59014  53.1604  82.9042 0000768 224.6966 135.3973 15.30224649 43971
STARLINK-31521          
1 59015U 24036T   24333.69675802  .00014415  00000+0  49773-3 0  9990
2 59015  53.1575  82.8956 0001708  99.6852 260.4341 15.30208860 43977
