OBJECT_NAME,OBJECT_ID,EPOCH,MEAN_MOTION,ECCENTRICITY,INCLINATION,RA_OF_ASC_NODE,ARG_OF_PERICENTER,MEAN_ANOMALY,EPHEMERIS_TYPE,CLASSIFICATION_TYPE,NORAD_CAT_ID,ELEMENT_SET_NO,REV_AT_EPOCH,BSTAR,MEAN_MOTION_DOT,MEAN_MOTION_DDOT
STARLINK-31380,2024-031Q,2024-11-28T14:51:10.370592,15.30206518,.0000748,53.1618,301.6873,73.9696,286.1387,0,U,58979,999,4515,.16404E-3,.4503E-4,0
STARLINK-31353,2024-031R,2024-11-29T04:54:40.130496,15.30180146,.0000789,53.1613,298.9500,83.2393,276.8697,0,U,58980,999,4521,-.8312E-4,-.2818E-4,0
STARLINK-31339,2024-031S,2024-11-29T00:20:06.545760,15.30176509,.0001373,53.1598,299.8890,25.7999,334.3070,0,U,58981,999,4523,-.56931E-4,-.2044E-4,0
STARLINK-31360,2024-031T,2024-11-29T04:09:26.679744,15.47199108,.0008338,53.1582,292.3794,86.9548,273.2414,0,U,58982,999,4535,.12536E-2,.64946E-3,0
STARLINK-31384,2024-031U,2024-11-28T15:04:53.096448,15.30183749,.000035,53.1619,301.7482,213.9860,146.1119,0,U,58983,999,4515,.1473E-3,.4004E-4,0
STARLINK-31379,2024-031V,2024-11-28T21:27:10.333440,15.30206220,.0001507,53.1621,300.5607,113.3499,246.7661,0,U,58984,999,4521,-.2831E-4,-.1198E-4,0
STARLINK-31385,2024-031W,2024-11-29T04:41:44.282688,15.30175130,.0001229,53.1621,296.7212,92.8437,267.2704,0,U,58985,999,4529,.50669E-6,-.344E-5,0
STARLINK-31229,2024-031X,2024-11-28T07:29:48.511392,15.30185721,.0000452,53.1606,303.3359,93.4710,266.6343,0,U,58986,999,4510,.10712E-3,.2814E-4,0
CE-SAT-IE,2024-032A,2024-11-28T14:21:26.409312,14.67337376,.0004027,98.0802,27.5188,80.2828,279.8831,0,U,58987,999,4186,.35267E-3,.1943E-4,0
TIRSAT,2024-032C,2024-11-29T01:38:18.434688,14.69907807,.000603,98.0774,28.6586,140.5064,219.6582,0,U,58989,999,4198,.80103E-3,.4747E-4,0
INSAT-3DS,2024-033A,2024-11-28T21:11:42.648000,1.00271867,.0001433,0.0417,269.5985,343.3159,215.4081,0,U,58990,999,4140,0,-.129E-5,0
ADRAS-J,2024-034A,2024-11-29T03:09:53.001216,14.96903986,.0040254,98.2303,315.1338,224.0627,135.7383,0,U,58992,999,4251,.63865E-3,.7389E-4,0
MERAH PUTIH 2,2024-035A,2024-11-28T21:19:42.665664,1.00273623,.0001222,0.0141,298.9993,298.3263,263.8414,0,U,58995,999,292,0,-.33E-5,0
AAC-AIS-SAT3,2023-174DJ,2024-11-29T02:51:40.004064,14.78030839,.0007245,97.7024,35.9179,21.6684,338.4833,0,U,58997,999,5749,.16856E-2,.12144E-3,0
STARLINK-31468,2024-036A,2024-11-28T17:02:55.485888,15.30194699,.0001422,53.1596,82.2851,107.9423,252.1732,0,U,58998,999,4399,.43673E-4,.934E-5,0
STARLINK-31440,2024-036B,2024-11-28T17:05:58.119072,15.30185770,.0001269,53.1605,82.2915,81.8447,278.2698,0,U,58999,999,4317,.97505E-4,.2528E-4,0
STARLINK-31529,2024-036C,2024-11-28T17:44:33.997632,15.32037439,.0001278,53.1602,80.3391,86.5884,273.5264,0,U,59000,999,4393,.96842E-5,-.63E-6,0
STARLINK-31431,2024-036E,2024-11-28T16:35:44.685888,15.30185848,.000132,53.1611,82.8685,126.9493,233.1629,0,U,59002,999,4397,-.21047E-4,-.982E-5,0
STARLINK-31435,2024-036G,2024-11-28T15:33:25.725888,15.30195387,.0001389,53.1599,82.5999,88.2779,271.8381,0,U,59004,999,4398,.60337E-4,.1428E-4,0
STARLINK-31484,2024-036H,2024-11-28T15:37:59.212128,15.30192094,.0001202,53.1593,82.6195,87.5631,272.5507,0,U,59005,999,4397,.73731E-4,.1825E-4,0
STARLINK-31450,2024-036J,2024-11-28T17:22:39.534816,15.30235707,.0000612,53.1601,82.3604,80.3539,279.7531,0,U,59006,999,4398,-.23914E-3,-.7442E-4,0
STARLINK-31456,2024-036K,2024-11-28T15:42:32.374368,15.30202901,.0001326,53.1620,82.6362,95.7533,264.3619,0,U,59007,999,4398,.11319E-3,.2995E-4,0
STARLINK-31460,2024-036L,2024-11-28T17:59:09.060288,15.30196870,.0001053,53.1589,82.5230,96.3507,263.7613,0,U,59008,999,4398,.1171E-3,.311E-4,0
STARLINK-31488,2024-036M,2024-11-28T15:36:30.913920,15.30161204,.0001145,53.1593,82.6139,95.2365,264.8767,0,U,59009,999,4397,.10373E-3,.2711E-4,0
STARLINK-31528,2024-036N,2024-11-28T15:21:26.954784,15.30181776,.0001262,53.1620,83.2544,106.3694,253.7446,0,U,59010,999,4396,.15584E-4,.102E-5,0
STARLINK-31491,2024-036P,2024-11-28T16:56:56.309856,15.30243802,.0001368,53.1611,82.9575,97.0064,263.1092,0,U,59011,999,4397,.31871E-3,.9104E-4,0
STARLINK-31465,2024-036Q,2024-11-28T15:15:21.298752,15.30187853,.0001611,53.1585,83.2301,86.8033,273.3152,0,U,59012,999,4396,-.40516E-4,-.1559E-4,0
STARLINK-31389,2024-036R,2024-11-28T16:53:54.743712,15.30259756,.0000114,53.1592,82.9447,215.8407,144.2586,0,U,59013,999,4398,.70457E-3,.20605E-3,0
STARLINK-31454,2024-036S,2024-11-28T16:44:49.126848,15.30224649,.0000768,53.1604,82.9042,224.6966,135.3973,0,U,59014,999,4397,.134E-3,.3615E-4,0
STARLINK-31521,2024-036T,2024-11-28T16:43:19.892928,15.30208860,.0001708,53.1575,82.8956,99.6852,260.4341,0,U,59015,999,4397,.49773E-3,.14415E-3,0
